OBJECT_NAME,OBJECT_ID,EPOCH,MEAN_MOTION,ECCENTRICITY,INCLINATION,RA_OF_ASC_NODE,ARG_OF_PERICENTER,MEAN_ANOMALY,EPHEMERIS_TYPE,CLASSIFICATION_TYPE,NORAD_CAT_ID,ELEMENT_SET_NO,REV_AT_EPOCH,BSTAR,MEAN_MOTION_DOT,MEAN_MOTION_DDOT
GPS BIIR-5  (PRN 22),2000-040A,2026-06-12T07:42:23.377824,2.00557597,.01210769,54.8520,215.3556,302.4522,67.8911,0,U,26407,999,18985,0,.84E-6,0
GPS BIIR-8  (PRN 16),2003-005A,2026-06-12T03:54:34.154784,2.00560784,.01479309,54.8829,215.1687,53.0708,338.9785,0,U,27663,999,17121,0,.84E-6,0
GPS BIIR-11 (PRN 19),2004-009A,2026-06-11T22:13:36.493248,2.00554824,.01159298,54.8343,275.8999,172.8401,201.5015,0,U,28190,999,16284,0,-.37E-6,0
GPS BIIR-13 (PRN 02),2004-045A,2026-06-11T08:14:13.133184,2.00555552,.0169872,55.1399,325.1314,316.2822,62.1293,0,U,28474,999,15831,0,-.66E-6,0
GPS BIIRM-1 (PRN 17),2005-038A,2026-06-11T22:26:38.770944,2.00565961,.01278281,54.8825,273.3896,296.1108,113.2045,0,U,28874,999,15173,0,-.34E-6,0
GPS BIIRM-2 (PRN 31),2006-042A,2026-06-12T03:15:45.531360,2.00570092,.01065148,54.7101,151.5395,54.2915,38.3811,0,U,29486,999,14429,0,.97E-6,0
GPS BIIRM-3 (PRN 12),2006-052A,2026-06-10T22:28:53.198976,2.00557843,.0085247,54.9356,214.2541,90.7995,270.2610,0,U,29601,999,14328,0,.78E-6,0
GPS BIIRM-4 (PRN 15),2007-047A,2026-06-12T05:43:54.122304,2.00555387,.016659,54.0917,80.2696,87.2801,274.6185,0,U,32260,999,13671,0,-.37E-6,0
COSMOS 2433 (720),2007-052A,2026-06-10T08:18:16.158240,2.13104347,.00022232,65.5811,316.1641,191.9747,168.0168,0,U,32275,999,14491,0,-.36E-6,0
COSMOS 2432 (719),2007-052B,2026-06-11T08:30:05.798592,2.13103380,.0007764,65.5974,316.2581,332.8636,24.5023,0,U,32276,999,14495,0,-.41E-6,0
GPS BIIRM-5 (PRN 29),2007-062A,2026-06-11T00:02:46.820256,2.00559715,.00356355,55.0367,274.4015,165.0205,149.1612,0,U,32384,999,13538,0,-.38E-6,0
COSMOS 2434 (721),2007-065A,2026-06-13T01:36:38.055168,2.13101303,.0001152,64.3199,192.0547,331.0720,206.3087,0,U,32393,999,14368,0,.117E-5,0
COSMOS 2436 (723),2007-065C,2026-06-11T09:02:19.231872,2.13100308,.0017255,64.3261,192.1838,354.1299,98.7062,0,U,32395,999,14360,0,.121E-5,0
GPS BIIRM-6 (PRN 07),2008-012A,2026-06-12T03:36:53.082432,2.00572244,.02111875,54.4967,150.1259,247.7837,109.9640,0,U,32711,999,13365,0,.94E-6,0
GPS BIIRM-8 (PRN 05),2009-043A,2026-06-12T07:00:41.803200,2.00554420,.00537591,56.2072,27.6438,83.0379,29.3335,0,U,35752,999,12326,0,-.64E-6,0
COSMOS 2456 (730),2009-070A,2026-06-11T10:51:38.674944,2.13103889,.00048116,65.0078,71.1678,328.5982,208.2544,0,U,36111,999,12830,0,-.33E-6,0
COSMOS 2457 (733),2009-070B,2026-06-11T16:59:30.075936,2.13101285,.00025688,64.9934,71.0034,125.8504,14.4375,0,U,36112,999,12831,0,-.33E-6,0
COSMOS 2460 (732),2010-007C,2026-06-12T05:23:41.899200,2.13101705,.00020993,65.4235,314.6349,105.2859,73.4364,0,U,36402,999,12662,0,-.46E-6,0
GPS BIIF-1  (PRN 25),2010-022A,2026-06-11T23:20:07.665216,2.00562130,.01263356,54.2706,208.7721,66.1306,293.7804,0,U,36585,999,11748,0,.93E-6,0
BEIDOU-2 IGSO-1 (C06),2010-036A,2026-06-11T23:10:43.063680,1.00273454,.00591902,54.3019,163.0075,225.0550,327.5844,0,U,36828,999,5804,0,-.29E-6,0
BEIDOU-2 G4 (C04),2010-057A,2026-06-12T15:40:17.759712,1.00271259,.0005119,3.6342,68.9757,197.7214,29.3695,0,U,37210,999,5724,0,-.1E-5,0
BEIDOU-2 IGSO-2 (C07),2010-068A,2026-06-11T15:08:58.718688,1.00285295,.0055444,47.5583,271.9034,212.3317,110.6962,0,U,37256,999,5673,0,-.226E-5,0
COSMOS 2476 (744),2011-064A,2026-06-12T12:18:34.274016,2.13103940,.0022751,65.2671,73.0295,239.0136,299.6480,0,U,37867,999,11366,0,-.32E-6,0
COSMOS 2477 (745),2011-064B,2026-06-12T07:57:08.718624,2.13103118,.0019937,65.2735,73.1149,240.6058,339.1353,0,U,37868,999,11365,0,-.32E-6,0
COSMOS 2475 (743),2011-064C,2026-06-12T09:31:36.817824,2.13101988,.0025707,65.2806,73.1342,253.4520,331.7577,0,U,37869,999,11366,0,-.32E-6,0
